OBJECT_NAME,OBJECT_ID,EPOCH,MEAN_MOTION,ECCENTRICITY,INCLINATION,RA_OF_ASC_NODE,ARG_OF_PERICENTER,MEAN_ANOMALY,EPHEMERIS_TYPE,CLASSIFICATION_TYPE,NORAD_CAT_ID,ELEMENT_SET_NO,REV_AT_EPOCH,BSTAR,MEAN_MOTION_DOT,MEAN_MOTION_DDOT
H-2A R/B,2006-002B,2026-07-15T11:02:44.925216,15.18447770,.00508147,98.2591,354.8589,165.1390,195.1349,0,U,28932,999,11381,.23940244E-3,.5015E-4,0
RESURS-DK 1,2006-021A,2026-07-15T12:35:44.509344,15.13319759,.00071281,69.9307,266.1925,270.7395,89.2954,0,U,29228,999,10686,.57571113E-4,.919E-5,0
CZ-4B R/B,2006-046C,2026-07-15T03:19:13.948896,15.17980988,.00325938,97.5438,240.6597,182.3092,177.7997,0,U,29507,999,7937,.12090458E-3,.2419E-4,0
CZ-2C R/B,2007-010B,2026-07-15T07:26:00.954528,14.20281788,.00577807,98.4119,303.2882,283.4262,76.0480,0,U,31114,999,99783,.3192438E-4,.28E-6,0
COSMO-SKYMED 1,2007-023A,2026-07-15T14:33:10.165824,14.97220334,.00014577,97.8846,28.7027,103.0856,257.0528,0,U,31598,999,3404,.12397779E-3,.1374E-4,0
COSMOS 2428,2007-029A,2026-07-15T12:47:17.085696,14.12934606,.00072036,70.9381,294.9624,80.5752,279.6183,0,U,31792,999,98215,.15641268E-3,.244E-5,0
SL-16 R/B,2007-029B,2026-07-15T12:55:10.041024,14.14851875,.00019536,70.9745,263.6316,256.3609,203.2418,0,U,31793,999,98345,.12662975E-3,.197E-5,0
KORONAS-FOTON,2009-003A,2026-07-15T08:42:54.067392,15.46300081,.00121721,82.4310,142.8557,61.9367,298.3111,0,U,33504,999,96545,.14582979E-3,.7244E-4,0
CZ-2C R/B,2011-030B,2026-07-15T11:38:49.861248,14.81532605,.00508155,97.8670,151.3646,295.1925,178.8633,0,U,37731,999,80901,.65994041E-4,.473E-5,0
H-2A R/B,2012-025E,2026-07-15T12:29:24.683712,14.95838163,.00425112,98.4847,174.0075,254.0003,105.6531,0,U,38341,999,76732,.54082256E-4,.543E-5,0
SHIJIAN-16 (SJ-16),2013-057A,2026-07-15T14:11:34.111392,14.92672444,.00157744,74.9742,302.8836,163.7958,196.3738,0,U,39358,999,69058,.10868258E-3,.1094E-4,0
SL-4 R/B,2014-021B,2026-07-15T15:21:10.244160,15.42489108,.00896333,51.6064,71.3246,210.1097,149.4718,0,U,39679,999,67600,.12494462E-3,.5892E-4,0
ALOS-2,2014-029A,2026-07-15T14:42:08.920800,14.79467278,.00015823,97.9234,293.3699,91.0636,269.0757,0,U,39766,999,65578,.89767297E-4,.619E-5,0
YAOGAN-29,2015-069A,2026-07-15T13:57:35.076672,14.83109119,.00006984,98.0017,225.2579,15.3096,344.8139,0,U,41038,999,57483,.1129142E-3,.866E-5,0
ASTRO-H (HITOMI),2016-012A,2026-07-15T10:44:36.350016,15.10633098,.0009649,30.9981,251.6570,177.8511,182.2170,0,U,41337,999,57156,.69423733E-4,.1273E-4,0
HXMT (HUIYAN),2017-034A,2026-07-15T14:44:57.107904,15.18690651,.00322477,43.0155,24.7238,323.3695,36.4949,0,U,42758,999,50198,.1138336E-3,.2188E-4,0
SAOCOM 1A,2018-076A,2026-07-15T15:00:43.036704,14.82149458,.00014805,97.8880,22.9607,86.9719,273.1664,0,U,43641,999,42031,.80892095E-4,.592E-5,0
H-2A R/B,2018-084L,2026-07-15T14:41:22.482528,15.46212820,.00205356,98.8530,81.7337,299.0779,60.8408,0,U,43682,999,42551,.26930215E-3,.13223E-3,0
SAOCOM 1B,2020-059A,2026-07-15T14:08:25.901088,14.82156541,.00014933,97.8884,22.0210,81.3813,278.7570,0,U,46265,999,31769,-.36594547E-4,-.344E-5,0
CSS (TIANHE),2021-035A,2026-07-15T12:51:01.431072,15.58093729,.00022286,41.4690,149.7716,300.3824,59.6794,0,U,48274,999,29759,.20013762E-4,.1219E-4,0
COSMOS 2550,2021-056A,2026-07-15T15:36:43.013376,15.33830464,.00085075,67.1435,13.8058,270.2473,89.7707,0,U,48865,999,28308,.89675387E-4,.276E-4,0
CZ-2C R/B,2022-058K,2026-07-15T12:02:53.242368,15.63873458,.00301342,50.1855,15.9607,23.9117,336.3250,0,U,52794,999,23007,.28016353E-3,.27038E-3,0
CZ-2C R/B,2022-132E,2026-07-15T12:28:27.854976,15.75021731,.00093242,97.2891,204.8829,340.4790,19.6117,0,U,54039,999,21040,.33848009E-3,.50416E-3,0
GSLV R/B,2022-138AN,2026-07-15T07:41:29.164416,14.97382789,.00235301,87.3818,123.5374,51.7886,308.5460,0,U,54149,999,20302,.10826379E-3,.1294E-4,0
XRISM,2023-137A,2026-07-15T08:50:21.806016,15.12669567,.00078418,31.0008,177.0225,248.1772,111.8032,0,U,57800,999,15713,.10585006E-3,.1997E-4,0
ACS3,2024-077B,2026-07-15T07:49:26.157216,13.95282262,.01257574,97.1739,108.8789,36.5333,324.4331,0,U,59588,999,11196,.30372334E-2,.4361E-4,0
SPACEMOBILE-003,2024-163A,2026-07-15T11:25:46.905312,15.20706022,.00046256,52.9668,179.3513,194.3949,165.6914,0,U,61045,999,10207,.60382828E-4,.1018E-4,0
SPACEMOBILE-005,2024-163B,2026-07-15T09:27:17.935776,15.20721288,.00087039,52.9762,179.6783,196.2999,163.7716,0,U,61046,999,10205,.11604448E-3,.2259E-4,0
SPACEMOBILE-001,2024-163C,2026-07-15T09:24:54.883296,15.20741724,.00072054,52.9733,179.3964,194.1158,165.9636,0,U,61047,999,10205,.27081573E-4,.276E-5,0
SPACEMOBILE-002,2024-163D,2026-07-15T09:01:40.700928,15.20785739,.00060257,52.9778,179.5102,192.7695,167.3147,0,U,61048,999,10205,.17897689E-3,.367E-4,0
